[{"OBJECT_NAME":"NUSHSAT1","OBJECT_ID":"2025-052B","EPOCH":"2026-03-09T15:31:41.225952","MEAN_MOTION":15.31903202,"ECCENTRICITY":0.0005501,"INCLINATION":97.4095,"RA_OF_ASC_NODE":325.7239,"ARG_OF_PERICENTER":84.7512,"MEAN_ANOMALY":275.4357,"EPHEMERIS_TYPE":0,"CLASSIFICATION_TYPE":"U","NORAD_CAT_ID":63211,"ELEMENT_SET_NO":999,"REV_AT_EPOCH":5488,"BSTAR":0.00074857,"MEAN_MOTION_DOT":0.00023034,"MEAN_MOTION_DDOT":0},{"OBJECT_NAME":"STARLINK-34910","OBJECT_ID":"2025-247E","EPOCH":"2026-03-09T14:52:43.801824","MEAN_MOTION":15.30190409,"ECCENTRICITY":0.0001103,"INCLINATION":53.1585,"RA_OF_ASC_NODE":191.6779,"ARG_OF_PERICENTER":93.2829,"MEAN_ANOMALY":266.8298,"EPHEMERIS_TYPE":0,"CLASSIFICATION_TYPE":"U","NORAD_CAT_ID":66269,"ELEMENT_SET_NO":999,"REV_AT_EPOCH":2102,"BSTAR":0.0011487,"MEAN_MOTION_DOT":0.00033808,"MEAN_MOTION_DDOT":0}]
